NORAD_CAT_ID,OBJECT_NAME,OBJECT_TYPE,EPOCH,MEAN_MOTION,ECCENTRICITY,INCLINATION,RA_OF_ASC_NODE,ARG_OF_PERICENTER,MEAN_ANOMALY,BSTAR,MEAN_MOTION_DOT,MEAN_MOTION_DDOT,TLE_LINE0,TLE_LINE1,TLE_LINE2,SEMIMAJOR_AXIS,PERIOD,APOGEE,PERIGEE,DECAYED
53259.0,STARLINK-4140,PAYLOAD,2023-09-14 10:03:50,15.08821302,0.0001584,53.2178,306.6615,78.4611,281.6559,-0.0001316,-2.381e-05,0.0,0 STARLINK-4140,1 53259U 22086T   23257.41933897 -.00002381  00000-0 -13160-3 0  9995,2 53259  53.2178 306.6615 0001584  78.4611 281.6559 15.08821302 63920,6917.938,95.439,540.898,538.707,0.0
53259.0,STARLINK-4140,PAYLOAD,2023-09-14 13:14:37,15.08822908,0.0001529,53.2178,306.0659,86.0812,274.0355,-0.00012172,-2.224e-05,0.0,0 STARLINK-4140,1 53259U 22086T   23257.55181874 -.00002224  00000-0 -12172-3 0  9998,2 53259  53.2178 306.0659 0001529  86.0812 274.0355 15.08822908 64125,6917.933,95.439,540.855,538.74,0.0
53259.0,STARLINK-4140,PAYLOAD,2023-09-15 03:33:04,15.08833373,0.0001534,53.2184,303.3894,89.1983,270.9185,-3.2229e-05,-8.01e-06,0.0,0 STARLINK-4140,1 53259U 22086T   23258.14797403 -.00000801  00000-0 -32229-4 0  9990,2 53259  53.2184 303.3894 0001534  89.1983 270.9185 15.08833373 64036,6917.901,95.438,540.827,538.704,0.0
53259.0,STARLINK-4140,PAYLOAD,2023-09-15 09:54:37,15.08837191,0.0001564,53.2168,302.2004,82.7418,277.3752,8.9186e-05,1.132e-05,0.0,0 STARLINK-4140,1 53259U 22086T   23258.41293239  .00001132  00000-0  89186-4 0  9998,2 53259  53.2168 302.2004 0001564  82.7418 277.3752 15.08837191 64251,6917.889,95.438,540.836,538.672,0.0
53259.0,STARLINK-4140,PAYLOAD,2023-09-16 08:10:01,15.08858139,0.0001598,53.2162,298.0375,74.7425,285.3744,0.00070646,0.00010979,0.0,0 STARLINK-4140,1 53259U 22086T   23259.34029047  .00010979  00000-0  70646-3 0  9994,2 53259  53.2162 298.0375 0001598  74.7425 285.3744 15.08858139 64215,6917.825,95.436,540.795,538.584,0.0
53259.0,STARLINK-4140,PAYLOAD,2023-09-16 19:17:42,15.08858342,0.0001632,53.2153,295.9545,65.1747,294.9415,0.00022647,3.32e-05,0.0,0 STARLINK-4140,1 53259U 22086T   23259.80396520  .00003320  00000-0  22647-3 0  9998,2 53259  53.2153 295.9545 0001632  65.1747 294.9415 15.08858342 64284,6917.824,95.436,540.818,538.56,0.0
53259.0,STARLINK-4140,PAYLOAD,2023-09-17 08:00:47,15.08848573,0.0001825,53.2171,293.5804,90.8224,269.2977,6.124e-05,6.87e-06,0.0,0 STARLINK-4140,1 53259U 22086T   23260.33388561  .00000687  00000-0  61240-4 0  9990,2 53259  53.2171 293.5804 0001825  90.8224 269.2977 15.08848573 64367,6917.854,95.437,540.982,538.457,0.0
53259.0,STARLINK-4140,PAYLOAD,2023-09-18 09:26:59,15.08785734,0.0002024,53.2177,288.8198,77.8771,282.2448,0.00092988,0.0001452,0.0,0 STARLINK-4140,1 53259U 22086T   23261.39374493  .00014520  00000-0  92988-3 0  9999,2 53259  53.2177 288.8198 0002024  77.8771 282.2448 15.08785734 64525,6918.046,95.441,541.311,538.511,0.0
53259.0,STARLINK-4140,PAYLOAD,2023-09-18 18:59:16,15.08843246,0.0001665,53.2175,287.0354,96.6991,263.419,7.8306e-05,9.59e-06,0.0,0 STARLINK-4140,1 53259U 22086T   23261.79116530  .00000959  00000-0  78306-4 0  9999,2 53259  53.2175 287.0354 0001665  96.6991 263.4190 15.08843246 64765,6917.87,95.437,540.887,538.584,0.0
53259.0,STARLINK-4140,PAYLOAD,2023-09-19 01:20:49,15.08843625,0.0001622,53.2175,285.8457,86.0348,274.0829,9.359e-05,1.202e-05,0.0,0 STARLINK-4140,1 53259U 22086T   23262.05612392  .00001202  00000-0  93590-4 0  9990,2 53259  53.2175 285.8457 0001622  86.0348 274.0829 15.08843625 64620,6917.869,95.437,540.856,538.612,0.0
53259.0,STARLINK-4140,PAYLOAD,2023-09-19 09:17:44,15.08849896,0.0001655,53.2172,284.3586,86.3601,273.758,0.00012995,1.781e-05,0.0,0 STARLINK-4140,1 53259U 22086T   23262.38731840  .00001781  00000-0  12995-3 0  9997,2 53259  53.2172 284.3586 0001655  86.3601 273.7580 15.08849896 64676,6917.85,95.437,540.86,538.57,0.0
53259.0,STARLINK-4140,PAYLOAD,2023-09-20 01:11:36,15.08836765,0.0001762,53.2171,281.3852,79.8732,280.2459,4.5738e-05,4.4e-06,0.0,0 STARLINK-4140,1 53259U 22086T   23263.04972915  .00000440  00000-0  45738-4 0  9994,2 53259  53.2171 281.3852 0001762  79.8732 280.2459 15.08836765 64779,6917.89,95.438,540.974,538.536,0.0
53259.0,STARLINK-4140,PAYLOAD,2023-09-20 07:33:09,15.08834664,0.0001738,53.2178,280.1943,81.4717,278.6472,-2.2295e-05,-6.43e-06,0.0,0 STARLINK-4140,1 53259U 22086T   23263.31469333 -.00000643  00000-0 -22295-4 0  9999,2 53259  53.2178 280.1943 0001738  81.4717 278.6472 15.08834664 64995,6917.897,95.438,540.964,538.559,0.0
53259.0,STARLINK-4140,PAYLOAD,2023-09-20 18:40:51,15.08835361,0.0001703,53.2163,278.1129,83.2351,276.8835,-1.0133e-06,-3.04e-06,0.0,0 STARLINK-4140,1 53259U 22086T   23263.77837331 -.00000304  00000-0 -10133-5 0  9999,2 53259  53.2163 278.1129 0001703  83.2351 276.8835 15.08835361 65065,6917.895,95.438,540.938,538.581,0.0
53259.0,STARLINK-4140,PAYLOAD,2023-09-21 07:23:56,15.08842694,0.0001661,53.2169,275.732,85.3214,274.7968,-3.2442e-05,-8.04e-06,0.0,0 STARLINK-4140,1 53259U 22086T   23264.30829075 -.00000804  00000-0 -32442-4 0  9996,2 53259  53.2169 275.7320 0001661  85.3214 274.7968 15.08842694 64960,6917.872,95.437,540.886,538.588,0.0
53259.0,STARLINK-4140,PAYLOAD,2023-09-22 12:00:52,15.08847681,0.0001618,53.2164,270.3797,87.1469,272.9708,0.00021128,3.077e-05,0.0,0 STARLINK-4140,1 53259U 22086T   23265.50060442  .00003077  00000-0  21128-3 0  9995,2 53259  53.2164 270.3797 0001618  87.1469 272.9708 15.08847681 65322,6917.857,95.437,540.841,538.603,0.0
53259.0,STARLINK-4140,PAYLOAD,2023-09-23 00:43:57,15.08841572,0.000183,53.2171,267.996,107.6905,252.4287,9.6417e-05,1.247e-05,0.0,0 STARLINK-4140,1 53259U 22086T   23266.03053069  .00001247  00000-0  96417-4 0  9992,2 53259  53.2171 267.9960 0001830 107.6905 252.4287 15.08841572 65220,6917.876,95.437,541.007,538.475,0.0
53259.0,STARLINK-4140,PAYLOAD,2023-09-23 07:05:30,15.08843467,0.0001703,53.2163,266.8116,92.6511,267.4676,0.00011493,1.542e-05,0.0,0 STARLINK-4140,1 53259U 22086T   23266.29548985  .00001542  00000-0  11493-3 0  9994,2 53259  53.2163 266.8116 0001703  92.6511 267.4676 15.08843467 65444,6917.87,95.437,540.913,538.557,0.0
53259.0,STARLINK-4140,PAYLOAD,2023-09-24 00:34:45,15.08837482,0.0001526,53.2163,263.5419,98.4317,261.6848,-2.6111e-05,-7.03e-06,0.0,0 STARLINK-4140,1 53259U 22086T   23267.02413628 -.00000703  00000-0 -26111-4 0  9995,2 53259  53.2163 263.5419 0001526  98.4317 261.6848 15.08837482 65374,6917.888,95.438,540.809,538.697,0.0
53259.0,STARLINK-4140,PAYLOAD,2023-09-24 05:20:54,15.08841514,0.0001556,53.2162,262.6503,98.2353,261.8816,8.253e-06,-1.57e-06,0.0,0 STARLINK-4140,1 53259U 22086T   23267.22285274 -.00000157  00000-0  82530-5 0  9991,2 53259  53.2162 262.6503 0001556  98.2353 261.8816 15.08841514 65589,6917.876,95.437,540.817,538.664,0.0
53259.0,STARLINK-4140,PAYLOAD,2023-09-25 08:22:27,15.08846705,0.0001463,53.2164,257.5943,98.8702,261.2456,4.1876e-05,3.79e-06,0.0,0 STARLINK-4140,1 53259U 22086T   23268.34893143  .00000379  00000-0  41876-4 0  9997,2 53259  53.2164 257.5943 0001463  98.8702 261.2456 15.08846705 65573,6917.86,95.437,540.737,538.713,0.0
53259.0,STARLINK-4140,PAYLOAD,2023-09-25 09:57:50,15.08850491,0.000144,53.2164,257.2964,97.2631,262.8525,6.8602e-05,8.04e-06,0.0,0 STARLINK-4140,1 53259U 22086T   23268.41516852  .00000804  00000-0  68602-4 0  9993,2 53259  53.2164 257.2964 0001440  97.2631 262.8525 15.08850491 65764,6917.848,95.437,540.709,538.717,0.0
53259.0,STARLINK-4140,PAYLOAD,2023-09-26 06:37:51,15.08841133,0.0001735,53.216,253.4314,75.1788,284.9396,0.00014258,1.982e-05,0.0,0 STARLINK-4140,1 53259U 22086T   23269.27629608  .00001982  00000-0  14258-3 0  9997,2 53259  53.2160 253.4314 0001735  75.1788 284.9396 15.08841133 65711,6917.877,95.437,540.942,538.542,0.0
53259.0,STARLINK-4140,PAYLOAD,2023-09-27 04:53:15,15.08842569,0.0001509,53.2157,249.2682,97.5107,262.6056,0.00010399,1.368e-05,0.0,0 STARLINK-4140,1 53259U 22086T   23270.20365447  .00001368  00000-0  10399-3 0  9990,2 53259  53.2157 249.2682 0001509  97.5107 262.6056 15.08842569 66036,6917.873,95.437,540.781,538.694,0.0
53259.0,STARLINK-4140,PAYLOAD,2023-09-27 16:00:57,15.08838088,0.000127,53.2153,247.1857,80.4389,279.6746,-7.5688e-06,-4.08e-06,0.0,0 STARLINK-4140,1 53259U 22086T   23270.66733702 -.00000408  00000-0 -75688-5 0  9993,2 53259  53.2153 247.1857 0001270  80.4389 279.6746 15.08838088 65923,6917.886,95.438,540.63,538.873,0.0
53259.0,STARLINK-4140,PAYLOAD,2023-09-27 22:22:31,15.08831663,0.0001612,53.2157,245.9952,87.9423,272.1754,-3.073e-05,-7.77e-06,0.0,0 STARLINK-4140,1 53259U 22086T   23270.93230425 -.00000777  00000-0 -30730-4 0  9994,2 53259  53.2157 245.9952 0001612  87.9423 272.1754 15.08831663 65963,6917.906,95.438,540.886,538.656,0.0
53259.0,STARLINK-4140,PAYLOAD,2023-09-28 07:54:49,15.08842853,0.0001416,53.2166,244.2102,85.0371,275.0782,6.3231e-05,7.19e-06,0.0,0 STARLINK-4140,1 53259U 22086T   23271.32973840  .00000719  00000-0  63231-4 0  9999,2 53259  53.2166 244.2102 0001416  85.0371 275.0782 15.08842853 66029,6917.872,95.437,540.716,538.757,0.0
53259.0,STARLINK-4140,PAYLOAD,2023-09-29 07:45:35,15.08850591,0.0001248,53.2163,239.7482,107.2126,252.9003,8.4164e-05,1.052e-05,0.0,0 STARLINK-4140,1 53259U 22086T   23272.32333143  .00001052  00000-0  84164-4 0  9995,2 53259  53.2163 239.7482 0001248 107.2126 252.9003 15.08850591 66358,6917.848,95.437,540.576,538.85,0.0
53259.0,STARLINK-4140,PAYLOAD,2023-09-30 04:25:36,15.08846817,0.0001305,53.2165,235.8817,78.0758,282.0381,0.00011616,1.562e-05,0.0,0 STARLINK-4140,1 53259U 22086T   23273.18445547  .00001562  00000-0  11616-3 0  9999,2 53259  53.2165 235.8817 0001305  78.0758 282.0381 15.08846817 66303,6917.86,95.437,540.627,538.822,0.0
53259.0,STARLINK-4140,PAYLOAD,2023-10-01 02:41:01,15.08839057,0.0001436,53.2167,231.7185,90.8238,269.2918,-1.7455e-05,-5.66e-06,0.0,0 STARLINK-4140,1 53259U 22086T   23274.11182382 -.00000566  00000-0 -17455-4 0  9991,2 53259  53.2167 231.7185 0001436  90.8238 269.2918 15.08839057 66444,6917.883,95.438,540.742,538.755,0.0
